ELEKTRO-L 3             
1 44903U 19095A   23196.75188152 -.00000097  00000+0  00000+0 0  9997
2 44903   0.0637 173.9945 0001265 324.6739 141.3082  1.00272860 12989
SHIJIAN-20 (SJ-20)      
1 44910U 19097A   23196.78497553  .00000147  00000+0  00000+0 0  9993
2 44910   2.1721  87.8167 0002949  83.1575  85.0897  1.00271939 12982
TJS-5                   
1 44978U 20002A   23197.46951617 -.00000342  00000+0  00000+0 0  9995
2 44978   0.2891 283.4225 0000215  59.3567 227.7598  1.00266953 12996
GSAT-30                 
1 45026U 20005A   23197.05188390 -.00000165  00000+0  00000+0 0  9991
2 45026   0.0206  51.4824 0003259  44.5335 299.3027  1.00269981 12836
EUTELSAT KONNECT        
1 45027U 20005B   23197.39142042  .00000049  00000+0  00000+0 0  9993
2 45027   0.0500  89.0631 0000325 183.2859 169.7014  1.00270378 13626
JCSAT-17                
1 45245U 20013A   23196.77209876 -.00000310  00000+0  00000+0 0  9996
2 45245   5.8131 347.3913 0003707 139.4457 220.4717  1.00271358 12542
GEO-KOMPSAT-2B          
1 45246U 20013B   23196.78035450 -.00000344  00000+0  00000+0 0  9990
2 45246   0.0490 227.7330 0000766   0.6812 114.1200  1.00272379 12548
BEIDOU-3 G2             
1 45344U 20017A   23197.05188390 -.00000142  00000+0  00000+0 0  9992
2 45344   2.0220  13.5861 0002999 123.2058 255.5534  1.00272536 12572
AEHF-6 (USA 298)        
1 45465U 20022B   23196.55610810 -.00000290  00000+0  00000+0 0  9997
2 45465   5.0221 300.0721 0043658   9.1283 321.8892  1.00273721 12276
BEIDOU-3 G3             
1 45807U 20040A   23197.04077257 -.00000353  00000+0  00000+0 0  9994
2 45807   0.6680 334.3407 0005573  15.9946  68.3766  1.00277455 11384
APSTAR 6D               
1 45863U 20045A   23196.77166294 -.00000318  00000+0  00000+0 0  9991
2 45863   0.0296  82.5920 0001620 351.4129 271.1448  1.00271738 11159
KOREASAT 116            
1 45920U 20048A   23197.18074677 -.00000362  00000+0  00000+0 0  9996
2 45920   0.0153 351.1720 0000746 140.9682 342.8575  1.00275180 10938
EXPRESS 103             
1 45985U 20053A   23197.33758125 -.00000281  00000+0  00000+0 0  9997
2 45985   0.0161 357.5780 0000907 345.7731 168.5767  1.00275233 10949
EXPRESS 80              
1 45986U 20053B   23196.96242912 -.00000136  00000+0  00000+0 0  9997
2 45986   0.0165  11.6534 0001087 344.9138   3.4320  1.00269947 10948
BSAT-4B                 
1 46112U 20056A   23196.79179564 -.00000350  00000+0  00000+0 0  9993
2 46112   0.0559 121.8988 0004914  12.4261 193.9195  1.00271201 10693
MEV-2                   
1 46113U 20056B   23172.02971066 -.00000005  00000+0  00000+0 0  9998
2 46113   0.0375  80.0989 0000632  60.5292 138.0524  1.00273519 11127
GALAXY 30 (G-30)        
1 46114U 20056C   23197.41173177  .00000036  00000+0  00000+0 0  9999
2 46114   0.0187  35.3027 0001763  79.2711 202.6116  1.00272275 10700
GAOFEN 13-01            
1 46610U 20071A   23196.78035450 -.00000363  00000+0  00000+0 0  9991
2 46610   0.3304  90.8393 0001642  29.5961 211.6945  1.00273255 10190
TIANTONG-1 2            
1 46916U 20082A   23197.15900837 -.00000351  00000+0  00000+0 0  9991
2 46916   3.1726 293.3673 0001755 212.9897 329.5332  1.00276485  9948
LUCAS (JDRS-1)          
1 47202U 20089A   23197.12256696 -.00000236  00000+0  00000+0 0  9993
2 47202   0.0284 282.8854 0001936 201.9097 303.7934  1.00272243  9699
SXM-7                   
1 47240U 20096A   23196.08293279 -.00000205  00000+0  00000+0 0  9991
2 47240   0.0155  21.2151 0000345 182.6128  33.4485  1.00271309  9629
CMS-01                  
1 47256U 20099A   23197.41021640 -.00000166  00000+0  00000+0 0  9996
2 47256   0.0460 270.5465 0004734 351.1232 262.9914  1.00273492  9493
TURKSAT 5A              
1 47306U 21001A   23197.03783722  .00000154  00000+0  00000+0 0  9996
2 47306   0.0186  82.9066 0000160 191.0956  64.1436  1.00273042  9288
TIANTONG-1 3            
1 47321U 21003A   23197.40632560 -.00000149  00000+0  00000+0 0  9994
2 47321   3.5755 308.9421 0003249 180.6858  32.1571  1.00272581  9278
TJS-6                   
1 47613U 21010A   23197.46868081  .00000041  00000+0  00000+0 0  9991
2 47613   0.3487  81.1439 0000423  90.2421 109.8874  1.00268062  9111
SBIRS GEO-5 (USA 315)   
1 48618U 21042A   23196.67867542  .00000124  00000+0  00000+0 0  9997
2 48618   6.6920 325.5091 0001520 163.6437  69.3299  1.00272824  8029
FENGYUN 4B              
1 48808U 21047A   23197.48402690 -.00000323  00000+0  00000+0 0  9994
2 48808   0.0579  59.8182 0001718  81.6097  99.8422  1.00278670  7868
SXM-8                   
1 48838U 21049A   23197.36979716 -.00000207  00000+0  00000+0 0  9995
2 48838   0.0073 350.5204 0003148  20.7540 330.5650  1.00283904  7923
TIANLIAN 1-05           
1 49011U 21063A   23197.07966101  .00000109  00000+0  00000+0 0  9997
2 49011   1.1694 279.5157 0003773 202.6236 216.9767  1.00272459  7370
STAR ONE D2             
1 49055U 21069A   23196.47360451 -.00000265  00000+0  00000+0 0  9994
2 49055   0.0073  48.2739 0002177  81.3498 263.9311  1.00269157  7203
EUTELSAT QUANTUM        
1 49056U 21069B   23197.05813314  .00000126  00000+0  00000+0 0  9996
2 49056   0.0143  12.6451 0001748 113.0761 236.5234  1.00270607  7221
CHINASAT 2E (ZX 2E)     
1 49062U 21071A   23197.40955071 -.00000292  00000+0  00000+0 0  9997
2 49062   0.0092 169.1815 0000735  76.7558 293.5345  1.00272506  7346
TJS-7                   
1 49115U 21077A   23196.65355701 -.00000125  00000+0  00000+0 0  9997
2 49115   0.2857  97.1825 0004030 276.7694  55.0826  1.00273815  7116
CHINASAT 9B             
1 49125U 21080A   23197.46627215 -.00000313  00000+0  00000+0 0  9993
2 49125   0.0551  98.4487 0001969  36.3517  68.5035  1.00270829  6938
SHIJIAN-21 (SJ-21)      
1 49330U 21094A   23196.74593017  .00000120  00000+0  00000+0 0  9993
2 49330   9.1773  47.5862 0081170  25.5172 151.6454  1.00347054  6544
SES-17                  
1 49332U 21095A   23197.21708887 -.00000273  00000+0  00000+0 0  9992
2 49332   0.0164  48.6202 0000771  72.6977 183.5224  1.00270290  7147
SYRACUSE 4A             
1 49333U 21095B   23197.29285590  .00000135  00000+0  00000+0 0  9998
2 49333   0.0180  28.7978 0001501  81.5594 334.4331  1.00270202  7296
QZS-1R                  
1 49336U 21096A   23196.75373490 -.00000327  00000+0  00000+0 0  9993
2 49336  35.2498  95.6960 0758108 271.9042 329.9012  1.00247960  6301
CHINASAT 1D (ZX 1D)     
1 49505U 21114A   23197.09718272 -.00000336  00000+0  00000+0 0  9991
2 49505   0.4721 272.9649 0001698 272.1282 273.7122  1.00270749  6129
STPSAT-6                
1 49817U 21118A   23197.41766233 -.00000046  00000+0  00000+0 0  9995
2 49817   0.0230  62.9800 0000239  67.9386 201.7922  1.00269969  5879
LDPE-1                  
1 49818U 21118B   23196.70789635  .00000095  00000+0  00000+0 0  9991
2 49818   1.3624  92.8014 0001963 160.2230 108.5108  1.01183864  5915
EXPRESS AMU-7           
1 50001U 21123A   23195.78523757 -.00000243  00000+0  00000+0 0  9997
2 50001   0.0197  34.6701 0000150  10.1486 315.1825  1.00269039  5822
EXPRESS AMU-3           
1 50002U 21123B   23196.89898611 -.00000321  00000+0  00000+0 0  9992
2 50002   0.0169  18.9886 0000276  85.6162 255.3983  1.00269869  5807
TIANLIAN 2-02           
1 50005U 21124A   23197.42786535 -.00000013  00000+0  00000+0 0  9995
2 50005   1.5424 277.7005 0002413 169.9127 171.3440  1.00271370  5917
TURKSAT 5B              
1 50212U 21126A   23197.33313399  .00000146  00000+0  00000+0 0  9997
2 50212   0.0655 345.8146 0002384   7.7549 102.2395  1.00272904  5594
INMARSAT 6-F1           
1 50319U 21128A   23197.33503319 -.00000172  00000+0  00000+0 0  9990
2 50319   0.0294  79.6061 0000739 128.5078 290.1642  1.00270883  5541
SHIYAN 12 01 (SY-12 01) 
1 50321U 21129A   23196.79640274 -.00000322  00000+0  00000+0 0  9992
2 50321   0.9122  98.4804 0005491 147.0312 112.6539  1.00035866  5817
SHIYAN 12 02 (SY-12 02) 
1 50322U 21129B   23196.74340490  .00000147  00000+0  00000+0 0  9999
2 50322   0.9120  98.4990 0001228 148.5762 337.2847  1.00439714  5807
TJS-9                   
1 50574U 21135A   23197.48614988 -.00000300  00000+0  00000+0 0  9995
2 50574   0.0799  92.9153 0002940 304.9700 208.3824  1.00269349  5764
USA 324                 
1 51280U 22006A   23194.46616008 -.00000113  00000+0  00000+0 0  9990
2 51280   0.9529  92.6679 0000895 112.5198 327.7877  1.00422538  5372
USA 325                 
1 51281U 22006B   23190.41418171 -.00000112  00000+0  00000+0 0  9992
2 51281   0.1478  95.0367 0003268  12.2327 126.3785  1.00391485  5340
GOES 18                 
1 51850U 22021A   23197.39630501  .00000096  00000+0  00000+0 0  9998
2 51850   0.0083 277.9087 0000292 251.0024 130.7196  1.00273454  5108
CHINASAT 6D             
1 52255U 22038A   23196.83749393 -.00000354  00000+0  00000+0 0  9992
2 52255   0.0743 264.7180 0000729 283.9800 171.2852  1.00273247  4748
NILESAT 301             
1 52817U 22061A   23196.74363396 -.00000058  00000+0  00000+0 0  9998
2 52817   0.0469 351.4503 0003407  99.6388 102.9650  1.00270129  4034
CMS-02 (GSAT 24)        
1 52903U 22067A   23196.99265248 -.00000165  00000+0  00000+0 0  9993
2 52903   0.0963 272.1467 0007748 181.4425 280.3228  1.00273079  3916
MEASAT 3D               
1 52904U 22067B   23196.76160590 -.00000242  00000+0  00000+0 0  9999
2 52904   0.0525 305.7501 0000155  27.0416 326.2104  1.00273645  3948
SES-22                  
1 52933U 22071A   23197.40460767  .00000087  00000+0  00000+0 0  9993
2 52933   0.0288 293.2550 0000907 176.1086 195.2622  1.00275663  3867
WFOV (USA 332)          
1 52940U 22073A   23197.34211382 -.00000364  00000+0  00000+0 0  9992
2 52940   0.9544  93.2033 0003331  56.7700  26.3142  1.00272818  3661
TIANLIAN 2-03           
1 53100U 22078A   23195.94101509  .00000074  00000+0  00000+0 0  9996
2 53100   2.0972 281.1473 0002584 200.3837 160.2674  1.00271370  3841
